NORAD_CAT_ID,OBJECT_NAME,OBJECT_TYPE,EPOCH,MEAN_MOTION,ECCENTRICITY,INCLINATION,RA_OF_ASC_NODE,ARG_OF_PERICENTER,MEAN_ANOMALY,BSTAR,MEAN_MOTION_DOT,MEAN_MOTION_DDOT,TLE_LINE0,TLE_LINE1,TLE_LINE2,SEMIMAJOR_AXIS,PERIOD,APOGEE,PERIGEE,DECAYED
52002.0,STARLINK-3668,PAYLOAD,2024-05-13 05:55:16,15.08812402,0.000115,53.2128,126.4484,67.4499,292.6615,1.6817e-06,-2.61e-06,0.0,0 STARLINK-3668,1 52002U 22025AY  24134.24671550 -.00000261  00000-0  16817-5 0  9992,2 52002  53.2128 126.4484 0001150  67.4499 292.6615 15.08812402121979,6917.965,95.439,540.625,539.034,0.0
52002.0,STARLINK-3668,PAYLOAD,2024-05-13 17:02:58,15.08825633,0.0001428,53.2151,124.3661,68.0395,292.0749,0.00051825,7.966e-05,0.0,0 STARLINK-3668,1 52002U 22025AY  24134.71040084  .00007966  00000-0  51825-3 0  9990,2 52002  53.2151 124.3661 0001428  68.0395 292.0749 15.08825633122040,6917.924,95.438,540.777,538.801,0.0
52002.0,STARLINK-3668,PAYLOAD,2024-05-14 05:46:03,15.08854193,0.0001364,53.2148,121.9865,64.267,295.8463,0.0011318,0.00017777,0.0,0 STARLINK-3668,1 52002U 22025AY  24135.24031933  .00017777  00000-0  11318-2 0  9995,2 52002  53.2148 121.9865 0001364  64.2670 295.8463 15.08854193122124,6917.837,95.437,540.646,538.758,0.0
52002.0,STARLINK-3668,PAYLOAD,2024-05-14 23:15:16,15.08881272,0.0001403,53.2154,118.7157,66.8924,293.2216,0.0010588,0.00016622,0.0,0 STARLINK-3668,1 52002U 22025AY  24135.96894470  .00016622  00000-0  10588-2 0  9993,2 52002  53.2154 118.7157 0001403  66.8924 293.2216 15.08881272120723,6917.754,95.435,540.59,538.649,0.0
52002.0,STARLINK-3668,PAYLOAD,2024-05-15 08:47:34,15.08900203,0.0001376,53.2155,116.9309,66.6782,293.4355,0.0014189,0.00022403,0.0,0 STARLINK-3668,1 52002U 22025AY  24136.36637171  .00022403  00000-0  14189-2 0  9996,2 52002  53.2155 116.9309 0001376  66.6782 293.4355 15.08900203122298,6917.696,95.434,540.513,538.61,0.0
52002.0,STARLINK-3668,PAYLOAD,2024-05-15 23:06:02,15.08860005,0.0001092,53.216,114.2548,64.9562,295.1543,4.2894e-05,3.95e-06,0.0,0 STARLINK-3668,1 52002U 22025AY  24136.96252995  .00000395  00000-0  42894-4 0  9991,2 52002  53.2160 114.2548 0001092  64.9562 295.1543 15.08860005120877,6917.819,95.436,540.44,538.929,0.0
52002.0,STARLINK-3668,PAYLOAD,2024-05-16 05:27:34,15.08861792,0.0001237,53.2158,113.0656,77.7376,282.3755,0.0003394,5.121e-05,0.0,0 STARLINK-3668,1 52002U 22025AY  24137.22748730  .00005121  00000-0  33940-3 0  9991,2 52002  53.2158 113.0656 0001237  77.7376 282.3755 15.08861792122427,6917.814,95.436,540.535,538.823,0.0
52002.0,STARLINK-3668,PAYLOAD,2024-05-16 14:59:53,15.0885426,0.0001266,53.2151,111.2779,69.2591,290.8536,0.00063172,9.784e-05,0.0,0 STARLINK-3668,1 52002U 22025AY  24137.62492685  .00009784  00000-0  63172-3 0  9999,2 52002  53.2151 111.2779 0001266  69.2591 290.8536 15.08854260120974,6917.837,95.437,540.578,538.826,0.0
52002.0,STARLINK-3668,PAYLOAD,2024-05-17 05:18:22,15.0884802,0.0001334,53.216,108.6059,91.6426,268.4719,0.00079679,0.00012418,0.0,0 STARLINK-3668,1 52002U 22025AY  24138.22108802  .00012418  00000-0  79679-3 0  9998,2 52002  53.2160 108.6059 0001334  91.6426 268.4719 15.08848020122576,6917.856,95.437,540.644,538.798,0.0
52002.0,STARLINK-3668,PAYLOAD,2024-05-17 14:50:40,15.08841667,0.000104,53.2149,106.82,78.7405,281.3704,0.00036391,5.509e-05,0.0,0 STARLINK-3668,1 52002U 22025AY  24138.61853002  .00005509  00000-0  36391-3 0  9997,2 52002  53.2149 106.8200 0001040  78.7405 281.3704 15.08841667122633,6917.875,95.437,540.46,539.021,0.0
52002.0,STARLINK-3668,PAYLOAD,2024-05-18 03:33:47,15.08814604,0.0001453,53.215,104.4412,84.4669,275.6488,-0.00011065,-2.047e-05,0.0,0 STARLINK-3668,1 52002U 22025AY  24139.14846385 -.00002047  00000-0 -11065-3 0  9999,2 52002  53.2150 104.4412 0001453  84.4669 275.6488 15.08814604122713,6917.958,95.439,540.828,538.818,0.0
52002.0,STARLINK-3668,PAYLOAD,2024-05-18 06:44:33,15.08828547,0.0001453,53.2155,103.8471,89.1037,271.0121,0.00075152,0.00011689,0.0,0 STARLINK-3668,1 52002U 22025AY  24139.28094451  .00011689  00000-0  75152-3 0  9990,2 52002  53.2155 103.8471 0001453  89.1037 271.0121 15.08828547122734,6917.915,95.438,540.786,538.775,0.0
52002.0,STARLINK-3668,PAYLOAD,2024-05-19 03:24:33,15.08876303,0.0001344,53.215,99.9793,83.1681,276.9464,0.0016092,0.00025441,0.0,0 STARLINK-3668,1 52002U 22025AY  24140.14205796  .00025441  00000-0  16092-2 0  9991,2 52002  53.2150  99.9793 0001344  83.1681 276.9464 15.08876303122860,6917.769,95.435,540.564,538.705,0.0
52002.0,STARLINK-3668,PAYLOAD,2024-05-19 20:53:48,15.08848886,0.0001558,53.2158,96.7099,81.0334,279.0835,0.0010184,0.00015961,0.0,0 STARLINK-3668,1 52002U 22025AY  24140.87070126  .00015961  00000-0  10184-2 0  9990,2 52002  53.2158  96.7099 0001558  81.0334 279.0835 15.08848886122974,6917.853,95.437,540.796,538.64,0.0
52002.0,STARLINK-3668,PAYLOAD,2024-05-20 03:15:21,15.08849661,0.000146,53.2153,95.5152,96.9339,263.1819,0.0015984,0.00025249,0.0,0 STARLINK-3668,1 52002U 22025AY  24141.13566202  .00025249  00000-0  15984-2 0  9998,2 52002  53.2153  95.5152 0001460  96.9339 263.1819 15.08849661121504,6917.851,95.437,540.726,538.706,0.0
52002.0,STARLINK-3668,PAYLOAD,2024-05-20 20:44:36,15.08836332,0.000217,53.2151,92.2534,66.1669,293.9551,0.00090198,0.00014095,0.0,0 STARLINK-3668,1 52002U 22025AY  24141.86431298  .00014095  00000-0  90198-3 0  9992,2 52002  53.2151  92.2534 0002170  66.1669 293.9551 15.08836332123129,6917.892,95.438,541.258,538.255,0.0
52002.0,STARLINK-3668,PAYLOAD,2024-05-21 06:16:55,15.08841206,0.000176,53.2148,90.4645,80.8346,279.2845,0.00035467,5.361e-05,0.0,0 STARLINK-3668,1 52002U 22025AY  24142.26175016  .00005361  00000-0  35467-3 0  9994,2 52002  53.2148  90.4645 0001760  80.8346 279.2845 15.08841206121674,6917.877,95.437,540.959,538.524,0.0
52002.0,STARLINK-3668,PAYLOAD,2024-05-22 06:07:41,15.0885147,0.0001807,53.2169,85.9997,88.9985,271.1214,0.00046032,7.048e-05,0.0,0 STARLINK-3668,1 52002U 22025AY  24143.25534670  .00007048  00000-0  46032-3 0  9993,2 52002  53.2169  85.9997 0001807  88.9985 271.1214 15.08851470121828,6917.845,95.437,540.96,538.46,0.0
52002.0,STARLINK-3668,PAYLOAD,2024-05-23 02:47:41,15.08854109,0.0001537,53.2173,82.1327,102.4758,257.6406,0.00019589,2.832e-05,0.0,0 STARLINK-3668,1 52002U 22025AY  24144.11645831  .00002832  00000-0  19589-3 0  9994,2 52002  53.2173  82.1327 0001537 102.4758 257.6406 15.08854109123465,6917.837,95.437,540.766,538.639,0.0
52002.0,STARLINK-3668,PAYLOAD,2024-05-23 05:58:28,15.08852995,0.0001515,53.2173,81.5396,98.8373,261.2791,0.00018506,2.659e-05,0.0,0 STARLINK-3668,1 52002U 22025AY  24144.24893625  .00002659  00000-0  18506-3 0  9999,2 52002  53.2173  81.5396 0001515  98.8373 261.2791 15.08852995121974,6917.841,95.437,540.754,538.658,0.0
52002.0,STARLINK-3668,PAYLOAD,2024-05-24 02:38:29,15.08844318,0.0001498,53.2168,77.6711,74.2771,285.8386,-6.272e-05,-1.286e-05,0.0,0 STARLINK-3668,1 52002U 22025AY  24145.11006030 -.00001286  00000-0 -62720-4 0  9997,2 52002  53.2168  77.6711 0001498  74.2771 285.8386 15.08844318123610,6917.867,95.437,540.768,538.696,0.0
52002.0,STARLINK-3668,PAYLOAD,2024-05-24 20:07:44,15.0883308,0.0001563,53.2179,74.4088,96.8546,263.2624,-0.00017985,-3.149e-05,0.0,0 STARLINK-3668,1 52002U 22025AY  24145.83870894 -.00003149  00000-0 -17985-3 0  9995,2 52002  53.2179  74.4088 0001563  96.8546 263.2624 15.08833080123728,6917.902,95.438,540.848,538.685,0.0
52002.0,STARLINK-3668,PAYLOAD,2024-05-25 12:01:35,15.08839055,0.0001362,53.2169,71.4339,91.7159,268.3989,1.5466e-05,-4.2e-07,0.0,0 STARLINK-3668,1 52002U 22025AY  24146.50110822 -.00000042  00000-0  15466-4 0  9999,2 52002  53.2169  71.4339 0001362  91.7159 268.3989 15.08839055122316,6917.883,95.438,540.69,538.806,0.0
52002.0,STARLINK-3668,PAYLOAD,2024-05-26 03:55:26,15.08851703,0.0001256,53.2166,68.4599,87.7474,272.3662,0.00025551,3.782e-05,0.0,0 STARLINK-3668,1 52002U 22025AY  24147.16350381  .00003782  00000-0  25551-3 0  9996,2 52002  53.2166  68.4599 0001256  87.7474 272.3662 15.08851703123929,6917.845,95.437,540.578,538.841,0.0
52002.0,STARLINK-3668,PAYLOAD,2024-05-26 18:13:55,15.08834504,0.000116,53.2164,65.7835,95.4497,264.6628,4.0346e-05,3.54e-06,0.0,0 STARLINK-3668,1 52002U 22025AY  24147.75967507  .00000354  00000-0  40346-4 0  9997,2 52002  53.2164  65.7835 0001160  95.4497 264.6628 15.08834504124012,6917.897,95.438,540.565,538.96,0.0
52002.0,STARLINK-3668,PAYLOAD,2024-05-26 23:00:05,15.0883763,0.0001612,53.217,64.8915,109.2267,250.8899,0.00012938,1.772e-05,0.0,0 STARLINK-3668,1 52002U 22025AY  24147.95839428  .00001772  00000-0  12938-3 0  9999,2 52002  53.2170  64.8915 0001612 109.2267 250.8899 15.08837630122534,6917.888,95.438,540.868,538.637,0.0
52002.0,STARLINK-3668,PAYLOAD,2024-05-27 11:43:10,15.08842967,0.0001418,53.2174,62.5125,115.1574,244.9565,0.0001157,1.554e-05,0.0,0 STARLINK-3668,1 52002U 22025AY  24148.48831025  .00001554  00000-0  11570-3 0  9992,2 52002  53.2174  62.5125 0001418 115.1574 244.9565 15.08842967124127,6917.871,95.437,540.717,538.755,0.0
52002.0,STARLINK-3668,PAYLOAD,2024-05-27 22:50:51,15.08848452,0.0001536,53.2177,60.4309,120.1976,239.9169,1.6633e-05,-2.3e-07,0.0,0 STARLINK-3668,1 52002U 22025AY  24148.95198806 -.00000023  00000-0  16633-4 0  9994,2 52002  53.2177  60.4309 0001536 120.1976 239.9169 15.08848452122682,6917.855,95.437,540.782,538.657,0.0
52002.0,STARLINK-3668,PAYLOAD,2024-05-28 03:37:00,15.08853837,0.0001404,53.2173,59.5383,108.8054,251.309,5.8306e-05,6.4e-06,0.0,0 STARLINK-3668,1 52002U 22025AY  24149.15070358  .00000640  00000-0  58306-4 0  9995,2 52002  53.2173  59.5383 0001404 108.8054 251.3090 15.08853837124229,6917.838,95.437,540.674,538.732,0.0
52002.0,STARLINK-3668,PAYLOAD,2024-05-28 21:06:18,15.08743934,0.0002031,53.2176,56.2625,105.8039,254.3178,0.001516,0.00023858,0.0,0 STARLINK-3668,1 52002U 22025AY  24149.87937605  .00023858  00000-0  15160-2 0  9996,2 52002  53.2176  56.2625 0002031 105.8039 254.3178 15.08743934122822,6918.174,95.444,541.444,538.634,0.0
